ORBCOMM FM05            
1 25117U 97084F   25299.81818525  .00002744  00000+0  79566-3 0  9991
2 25117  45.0134  95.8393 0003290 164.9138 195.1813 14.46438361459666
ORBCOMM FM06            
1 25118U 97084G   25299.82683946  .00002671  00000+0  77316-3 0  9990
2 25118  45.0126  95.3817 0002189 167.0929 347.9333 14.46593769460583
ORBCOMM FM07            
1 25119U 97084H   25299.80997705  .00002453  00000+0  71294-3 0  9997
2 25119  45.0119  96.2200 0004049 160.3756 199.7252 14.46610704460574
ORBCOMM FM03            
1 25158U 98007B   25299.83959935  .00001412  00000+0  53741-3 0  9993
2 25158 107.9634  46.0962 0043480  15.8779 344.3714 14.34840578442927
ORBCOMM FM04            
1 25159U 98007C   25299.80131514  .00001470  00000+0  55584-3 0  9997
2 25159 107.9624  49.3263 0039354  12.9211 347.2929 14.35084337443106
ORBCOMM FM17            
1 25413U 98046A   25299.54123330  .00001344  00000+0  51280-3 0  9990
2 25413  44.9957 357.5623 0003411 192.2282 167.8483 14.35386004422044
ORBCOMM FM18            
1 25414U 98046B   25299.65900816  .00001870  00000+0  64652-3 0  9996
2 25414  44.9925 270.8485 0005652 248.5349 111.4897 14.38952719423186
ORBCOMM FM19            
1 25415U 98046C   25299.65574492  .00001988  00000+0  68708-3 0  9990
2 25415  44.9936 273.0664 0004450 250.2557 279.1978 14.38768165423136
